{"type": "FeatureCollection", "features": [ {"type": "Feature", "properties": {"norad_id": 67081, "name": "STARLINK-35864", "group": "last-30-days", "lat": -69.79814317799402, "lon": 129.7988217606422, "alt_km": 342.7337363081833, "timestamp": "2025-12-26T04:40:04.514575+00:00", "meta": {"OBJECT_NAME": "STARLINK-35864", "OBJECT_ID": "2025-298G", "EPOCH": "2025-12-25T22:00:01.999584", "MEAN_MOTION": 15.78194373, "ECCENTRICITY": 0.0003659, "INCLINATION": 69.9968, "RA_OF_ASC_NODE": 212.4952, "ARG_OF_PERICENTER": 276.3938, "MEAN_ANOMALY": 219.0473, "EPHEMERIS_TYPE": 0, "CLASSIFICATION_TYPE": "U", "NORAD_CAT_ID": 67081, "ELEMENT_SET_NO": 999, "REV_AT_EPOCH": 309, "BSTAR": -0.01122057, "MEAN_MOTION_DOT": -0.01706101, "MEAN_MOTION_DDOT": 0}, "tle": {"line1": "1 67081U 25298G   25359.91668981 -.01706101  00000+0 -11221-1 0  9995", "line2": "2 67081  69.9968 212.4952 0003659 276.3938 219.0473 15.78194373  3093"}}, "geometry": {"type": "Point", "coordinates": [129.7988217606422, -69.79814317799402]}}, {"type": "Feature", "properties": {"norad_id": 67082, "name": "STARLINK-36035", "group": "last-30-days", "lat": -69.4330051442137, "lon": 135.55981864103694, "alt_km": 342.74419183741156, "timestamp": "2025-12-26T04:40:04.514585+00:00", "meta": {"OBJECT_NAME": "STARLINK-36035", "OBJECT_ID": "2025-298H", "EPOCH": "2025-12-25T22:00:01.999584", "MEAN_MOTION": 15.78189492, "ECCENTRICITY": 0.00036652, "INCLINATION": 69.9969, "RA_OF_ASC_NODE": 212.4928, "ARG_OF_PERICENTER": 278.775, "MEAN_ANOMALY": 218.7161, "EPHEMERIS_TYPE": 0, "CLASSIFICATION_TYPE": "U", "NORAD_CAT_ID": 67082, "ELEMENT_SET_NO": 999, "REV_AT_EPOCH": 309, "BSTAR": -0.011233322, "MEAN_MOTION_DOT": -0.01707491, "MEAN_MOTION_DDOT": 0}, "tle": {"line1": "1 67082U 25298H   25359.91668981 -.01707491  00000+0 -11233-1 0  9992", "line2": "2 67082  69.9969 212.4928 0003665 278.7750 218.7161 15.78189492  3099"}}, "geometry": {"type": "Point", "coordinates": [135.55981864103694, -69.4330051442137]}}, {"type": "Feature", "properties": {"norad_id": 67083, "name": "STARLINK-36170", "group": "last-30-days", "lat": -68.87161809878073, "lon": 141.18493567253762, "alt_km": 342.71124309986317, "timestamp": "2025-12-26T04:40:04.514595+00:00", "meta": {"OBJECT_NAME": "STARLINK-36170", "OBJECT_ID": "2025-298J", "EPOCH": "2025-12-25T22:00:01.999584", "MEAN_MOTION": 15.78183229, "ECCENTRICITY": 0.00037239, "INCLINATION": 69.9965, "RA_OF_ASC_NODE": 212.49, "ARG_OF_PERICENTER": 274.1456, "MEAN_ANOMALY": 225.4303, "EPHEMERIS_TYPE": 0, "CLASSIFICATION_TYPE": "U", "NORAD_CAT_ID": 67083, "ELEMENT_SET_NO": 999, "REV_AT_EPOCH": 309, "BSTAR": -0.01122716, "MEAN_MOTION_DOT": -0.01706293, "MEAN_MOTION_DDOT": 0}, "tle": {"line1": "1 67083U 25298J   25359.91668981 -.01706293  00000+0 -11227-1 0  9995", "line2": "2 67083  69.9965 212.4900 0003723 274.1456 225.4303 15.78183229  3099"}}, "geometry": {"type": "Point", "coordinates": [141.18493567253762, -68.87161809878073]}}, {"type": "Feature", "properties": {"norad_id": 67084, "name": "STARLINK-36166", "group": "last-30-days", "lat": -68.17249026083338, "lon": 146.25275845566392, "alt_km": 342.7522473346926, "timestamp": "2025-12-26T04:40:04.514608+00:00", "meta": {"OBJECT_NAME": "STARLINK-36166", "OBJECT_ID": "2025-298K", "EPOCH": "2025-12-25T22:00:01.999584", "MEAN_MOTION": 15.78180039, "ECCENTRICITY": 0.00036664, "INCLINATION": 69.9965, "RA_OF_ASC_NODE": 212.4876, "ARG_OF_PERICENTER": 278.4678, "MEAN_ANOMALY": 223.1011, "EPHEMERIS_TYPE": 0, "CLASSIFICATION_TYPE": "U", "NORAD_CAT_ID": 67084, "ELEMENT_SET_NO": 999, "REV_AT_EPOCH": 303, "BSTAR": -0.011236932, "MEAN_MOTION_DOT": -0.01707333, "MEAN_MOTION_DDOT": 0}, "tle": {"line1": "1 67084U 25298K   25359.91668981 -.01707333  00000+0 -11237-1 0  9993", "line2": "2 67084  69.9965 212.4876 0003666 278.4678 223.1011 15.78180039  3032"}}, "geometry": {"type": "Point", "coordinates": [146.25275845566392, -68.17249026083338]}}, {"type": "Feature", "properties": {"norad_id": 67085, "name": "STARLINK-35794", "group": "last-30-days", "lat": -67.33619500800052, "lon": 150.95203226206715, "alt_km": 342.74578494121215, "timestamp": "2025-12-26T04:40:04.514623+00:00", "meta": {"OBJECT_NAME": "STARLINK-35794", "OBJECT_ID": "2025-298L", "EPOCH": "2025-12-25T22:00:01.999584", "MEAN_MOTION": 15.78177952, "ECCENTRICITY": 0.00036892, "INCLINATION": 69.9967, "RA_OF_ASC_NODE": 212.4852, "ARG_OF_PERICENTER": 274.6577, "MEAN_ANOMALY": 228.8789, "EPHEMERIS_TYPE": 0, "CLASSIFICATION_TYPE": "U", "NORAD_CAT_ID": 67085, "ELEMENT_SET_NO": 999, "REV_AT_EPOCH": 309, "BSTAR": -0.011227405, "MEAN_MOTION_DOT": -0.0170593, "MEAN_MOTION_DDOT": 0}, "tle": {"line1": "1 67085U 25298L   25359.91668981 -.01705930  00000+0 -11227-1 0  9994", "line2": "2 67085  69.9967 212.4852 0003689 274.6577 228.8789 15.78177952  3090"}}, "geometry": {"type": "Point", "coordinates": [150.95203226206715, -67.33619500800052]}}, {"type": "Feature", "properties": {"norad_id": 67086, "name": "STARLINK-35841", "group": "last-30-days", "lat": -66.27740235136591, "lon": 155.69380706457153, "alt_km": 342.87484194840727, "timestamp": "2025-12-26T04:40:04.514633+00:00", "meta": {"OBJECT_NAME": "STARLINK-35841", "OBJECT_ID": "2025-298M", "EPOCH": "2025-12-25T22:00:01.999584", "MEAN_MOTION": 15.78165857, "ECCENTRICITY": 0.00035247, "INCLINATION": 69.9964, "RA_OF_ASC_NODE": 212.4826, "ARG_OF_PERICENTER": 277.8906, "MEAN_ANOMALY": 227.8105, "EPHEMERIS_TYPE": 0, "CLASSIFICATION_TYPE": "U", "NORAD_CAT_ID": 67086, "ELEMENT_SET_NO": 999, "REV_AT_EPOCH": 309, "BSTAR": -0.011225765, "MEAN_MOTION_DOT": -0.01704721, "MEAN_MOTION_DDOT": 0}, "tle": {"line1": "1 67086U 25298M   25359.91668981 -.01704721  00000+0 -11226-1 0  9991", "line2": "2 67086  69.9964 212.4826 0003524 277.8906 227.8105 15.78165857  3090"}}, "geometry": {"type": "Point", "coordinates": [155.69380706457153, -66.27740235136591]}}, {"type": "Feature", "properties": {"norad_id": 67087, "name": "STARLINK-35842", "group": "last-30-days", "lat": -69.7355608357161, "lon": 131.0723953241423, "alt_km": 351.79720397842175, "timestamp": "2025-12-26T04:40:04.514643+00:00", "meta": {"OBJECT_NAME": "STARLINK-35842", "OBJECT_ID": "2025-298N", "EPOCH": "2025-12-25T22:00:01.999584", "MEAN_MOTION": 15.75507626, "ECCENTRICITY": 0.00034336, "INCLINATION": 69.9977, "RA_OF_ASC_NODE": 212.4906, "ARG_OF_PERICENTER": 274.497, "MEAN_ANOMALY": 224.3016, "EPHEMERIS_TYPE": 0, "CLASSIFICATION_TYPE": "U", "NORAD_CAT_ID": 67087, "ELEMENT_SET_NO": 999, "REV_AT_EPOCH": 309, "BSTAR": -0.018238975, "MEAN_MOTION_DOT": -0.02395912, "MEAN_MOTION_DDOT": 0}, "tle": {"line1": "1 67087U 25298N   25359.91668981 -.02395912  00000+0 -18239-1 0  9992", "line2": "2 67087  69.9977 212.4906 0003433 274.4970 224.3016 15.75507626  3091"}}, "geometry": {"type": "Point", "coordinates": [131.0723953241423, -69.7355608357161]}}, {"type": "Feature", "properties": {"norad_id": 67088, "name": "STARLINK-35882", "group": "last-30-days", "lat": -64.01363121054567, "lon": 163.3243422416278, "alt_km": 342.78482194344724, "timestamp": "2025-12-26T04:40:04.514653+00:00", "meta": {"OBJECT_NAME": "STARLINK-35882", "OBJECT_ID": "2025-298P", "EPOCH": "2025-12-25T22:00:01.999584", "MEAN_MOTION": 15.78161517, "ECCENTRICITY": 0.00036902, "INCLINATION": 69.9967, "RA_OF_ASC_NODE": 212.4781, "ARG_OF_PERICENTER": 275.4882, "MEAN_ANOMALY": 234.1439, "EPHEMERIS_TYPE": 0, "CLASSIFICATION_TYPE": "U", "NORAD_CAT_ID": 67088, "ELEMENT_SET_NO": 999, "REV_AT_EPOCH": 309, "BSTAR": -0.01122054, "MEAN_MOTION_DOT": -0.01703886, "MEAN_MOTION_DDOT": 0}, "tle": {"line1": "1 67088U 25298P   25359.91668981 -.01703886  00000+0 -11221-1 0  9999", "line2": "2 67088  69.9967 212.4781 0003690 275.4882 234.1439 15.78161517  3096"}}, "geometry": {"type": "Point", "coordinates": [163.3243422416278, -64.01363121054567]}}, {"type": "Feature", "properties": {"norad_id": 67089, "name": "STARLINK-35763", "group": "last-30-days", "lat": -62.64016322721089, "lon": 166.9345513953384, "alt_km": 342.86800618142024, "timestamp": "2025-12-26T04:40:04.514663+00:00", "meta": {"OBJECT_NAME": "STARLINK-35763", "OBJECT_ID": "2025-298Q", "EPOCH": "2025-12-25T22:00:01.999584", "MEAN_MOTION": 15.78151717, "ECCENTRICITY": 0.00035763, "INCLINATION": 69.9965, "RA_OF_ASC_NODE": 212.4751, "ARG_OF_PERICENTER": 277.7613, "MEAN_ANOMALY": 234.0103, "EPHEMERIS_TYPE": 0, "CLASSIFICATION_TYPE": "U", "NORAD_CAT_ID": 67089, "ELEMENT_SET_NO": 999, "REV_AT_EPOCH": 309, "BSTAR": -0.011221506, "MEAN_MOTION_DOT": -0.01703235, "MEAN_MOTION_DDOT": 0}, "tle": {"line1": "1 67089U 25298Q   25359.91668981 -.01703235  00000+0 -11222-1 0  9999", "line2": "2 67089  69.9965 212.4751 0003576 277.7613 234.0103 15.78151717  3090"}}, "geometry": {"type": "Point", "coordinates": [166.9345513953384, -62.64016322721089]}}, {"type": "Feature", "properties": {"norad_id": 67090, "name": "STARLINK-36060", "group": "last-30-days", "lat": -61.36497205496999, "lon": 169.82937368531145, "alt_km": 342.8996489490455, "timestamp": "2025-12-26T04:40:04.514673+00:00", "meta": {"OBJECT_NAME": "STARLINK-36060", "OBJECT_ID": "2025-298R", "EPOCH": "2025-12-25T22:00:01.999584", "MEAN_MOTION": 15.7815509, "ECCENTRICITY": 0.00035198, "INCLINATION": 69.9961, "RA_OF_ASC_NODE": 212.4726, "ARG_OF_PERICENTER": 277.1211, "MEAN_ANOMALY": 236.5134, "EPHEMERIS_TYPE": 0, "CLASSIFICATION_TYPE": "U", "NORAD_CAT_ID": 67090, "ELEMENT_SET_NO": 999, "REV_AT_EPOCH": 303, "BSTAR": -0.011215646, "MEAN_MOTION_DOT": -0.01702621, "MEAN_MOTION_DDOT": 0}, "tle": {"line1": "1 67090U 25298R   25359.91668981 -.01702621  00000+0 -11216-1 0  9992", "line2": "2 67090  69.9961 212.4726 0003519 277.1211 236.5134 15.78155090  3038"}}, "geometry": {"type": "Point", "coordinates": [169.82937368531145, -61.36497205496999]}}]}